GPS BIIR-08             
1 27663U 03005A   26073.38516103  .00000019  00000+0  00000+0 0  9995
2 27663  54.9049 218.7332 0148685  52.7877 315.0636  2.00565720169413
GPS BIIR-11             
1 28190U 04009A   26073.37918436  .00000028  00000+0  00000+0 0  9990
2 28190  54.9080 279.5164 0111434 169.3433 349.7979  2.00557837161042
GPS BIIR-13             
1 28474U 04045A   26072.32972420 -.00000071  00000+0  00000+0 0  9991
2 28474  55.1896 328.7595 0170709 313.1823 232.1022  2.00573937156500
GPS BIIR-14M            
1 28874U 05038A   26073.40553155  .00000032  00000+0  00000+0 0  9994
2 28874  54.9554 277.0011 0128541 295.4769 267.0042  2.00572369149935
METEOSAT-9 (MSG-2)      
1 28912U 05049B   26072.50792468  .00000128  00000+0  00000+0 0  9997
2 28912   9.1445  55.0898 0000184  58.1827 286.5308  1.00267419  6037
GPS BIIR-16M            
1 29601U 06052A   26070.69292581  .00000033  00000+0  00000+0 0  9992
2 29601  54.9554 217.8682 0087716  89.5016 271.4739  2.00552224141454
GPS BIIR-17M            
1 32260U 07047A   26072.99372292  .00000030  00000+0  00000+0 0  9992
2 32260  54.0235  83.9876 0163687  86.0468 275.8750  2.00560318134904
GPS BIIR-18M            
1 32384U 07062A   26072.05935947  .00000029  00000+0  00000+0 0  9993
2 32384  55.1084 278.0153 0033186 160.7725  12.4048  2.00554193133588
GOES 14                 
1 35491U 09033A   26073.60728262  .00000110  00000+0  00000+0 0  9998
2 35491   1.4440  84.2624 0001679 273.9830 228.1978  1.00103446  5649
GOES 15                 
1 36411U 10008A   26073.62403521  .00000021  00000+0  00000+0 0  9996
2 36411   1.0320  84.9083 0002544  17.1366 358.2423  1.00270283 58692
GSAT0101 (GALILEO-PFM)  
1 37846U 11060A   26053.46432651 -.00000082  00000+0  00000+0 0  9992
2 37846  57.0318 344.8758 0003975 357.0591   2.9533  1.70475478 89166
GSAT0102 (GALILEO-FM2)  
1 37847U 11060B   26060.06318653 -.00000106  00000+0  00000+0 0  9999
2 37847  57.0301 344.6971 0005422 341.2092 154.1953  1.70475778 89286
LUCH 5A                 
1 37951U 11074B   26073.31631042 -.00000045  00000+0  00000+0 0  9994
2 37951   8.5116  75.1968 0003401 262.5594 115.1508  1.00268954 52109
METEOSAT-10 (MSG-3)     
1 38552U 12035B   26073.56854878 -.00000005  00000+0  00000+0 0  9997
2 38552   4.4463  61.4124 0002353 287.8622  27.7302  1.00269338 49907
SARSAT 13 (METOP-B)     
1 38771U 12049A   26073.58354055  .00000126  00000+0  77649-4 0  9990
2 38771  98.6632 126.9191 0001312 239.8727 120.2320 14.21446444699824
GPS BIIF-3              
1 38833U 12053A   26073.08978891 -.00000002  00000+0  00000+0 0  9995
2 38833  53.5669 147.4965 0177046  64.8456 297.0314  2.00565997 97538
GSAT0103 (GALILEO-FM3)  
1 38857U 12055A   26073.44869499  .00000040  00000+0  00000+0 0  9997
2 38857  55.7469 104.1441 0005619 286.5139  73.5020  1.70473501 83397
